NORAD_CAT_ID,OBJECT_NAME,OBJECT_TYPE,EPOCH,MEAN_MOTION,ECCENTRICITY,INCLINATION,RA_OF_ASC_NODE,ARG_OF_PERICENTER,MEAN_ANOMALY,BSTAR,MEAN_MOTION_DOT,MEAN_MOTION_DDOT,TLE_LINE0,TLE_LINE1,TLE_LINE2,SEMIMAJOR_AXIS,PERIOD,APOGEE,PERIGEE,DECAYED
53553.0,STARLINK-4501,PAYLOAD,2024-07-29 21:51:37,15.08839796,0.0001411,53.2157,182.642,79.8187,280.2965,7.5526e-05,9.14e-06,0.0,0 STARLINK-4501,1 53553U 22101AC  24211.91085495  .00000914  00000-0  75526-4 0  9991,2 53553  53.2157 182.6420 0001411  79.8187 280.2965 15.08839796108238,6917.881,95.438,540.722,538.77,0.0
53553.0,STARLINK-4501,PAYLOAD,2024-07-30 04:13:10,15.08835753,0.0001428,53.2169,181.4477,96.6528,263.4626,2.928e-05,1.78e-06,0.0,0 STARLINK-4501,1 53553U 22101AC  24212.17581959  .00000178  00000-0  29280-4 0  9994,2 53553  53.2169 181.4477 0001428  96.6528 263.4626 15.08835753107611,6917.893,95.438,540.746,538.77,0.0
53553.0,STARLINK-4501,PAYLOAD,2024-07-30 05:48:33,15.08836241,0.0001406,53.2167,181.1499,89.8933,270.222,3.2251e-05,2.25e-06,0.0,0 STARLINK-4501,1 53553U 22101AC  24212.24205952  .00000225  00000-0  32251-4 0  9993,2 53553  53.2167 181.1499 0001406  89.8933 270.2220 15.08836241108283,6917.892,95.438,540.73,538.784,0.0
53553.0,STARLINK-4501,PAYLOAD,2024-07-30 21:42:25,15.08839979,0.0001447,53.2167,178.1773,109.7267,250.3882,4.5901e-05,4.43e-06,0.0,0 STARLINK-4501,1 53553U 22101AC  24212.90445694  .00000443  00000-0  45901-4 0  9993,2 53553  53.2167 178.1773 0001447 109.7267 250.3882 15.08839979108386,6917.88,95.438,540.746,538.744,0.0
53553.0,STARLINK-4501,PAYLOAD,2024-07-31 04:03:57,15.08838929,0.0001424,53.2166,176.9872,101.8779,258.2372,5.3071e-05,5.57e-06,0.0,0 STARLINK-4501,1 53553U 22101AC  24213.16941796  .00000557  00000-0  53071-4 0  9999,2 53553  53.2166 176.9872 0001424 101.8779 258.2372 15.08838929108427,6917.884,95.438,540.734,538.764,0.0
53553.0,STARLINK-4501,PAYLOAD,2024-07-31 21:33:12,15.08833065,0.0001396,53.2178,173.7153,101.0602,259.0547,0.00013466,1.855e-05,0.0,0 STARLINK-4501,1 53553U 22101AC  24213.89805918  .00001855  00000-0  13466-3 0  9999,2 53553  53.2178 173.7153 0001396 101.0602 259.0547 15.08833065108533,6917.902,95.438,540.732,538.801,0.0
53553.0,STARLINK-4501,PAYLOAD,2024-08-01 03:54:45,15.08834044,0.0001363,53.2166,172.5271,94.2402,265.8746,7.6825e-05,9.35e-06,0.0,0 STARLINK-4501,1 53553U 22101AC  24214.16302111  .00000935  00000-0  76825-4 0  9994,2 53553  53.2166 172.5271 0001363  94.2402 265.8746 15.08834044108571,6917.899,95.438,540.707,538.821,0.0
53553.0,STARLINK-4501,PAYLOAD,2024-08-01 21:23:59,15.08838335,0.0001462,53.2168,169.2561,92.6836,267.4324,6.1956e-05,6.98e-06,0.0,0 STARLINK-4501,1 53553U 22101AC  24214.89165902  .00000698  00000-0  61956-4 0  9994,2 53553  53.2168 169.2561 0001462  92.6836 267.4324 15.08838335108680,6917.885,95.438,540.762,538.739,0.0
53553.0,STARLINK-4501,PAYLOAD,2024-08-02 02:10:09,15.0883203,0.0001446,53.2169,168.3634,93.1052,267.0105,4.5385e-07,-2.81e-06,0.0,0 STARLINK-4501,1 53553U 22101AC  24215.09038526 -.00000281  00000-0  45385-6 0  9997,2 53553  53.2169 168.3634 0001446  93.1052 267.0105 15.08832030108050,6917.905,95.438,540.77,538.769,0.0
53553.0,STARLINK-4501,PAYLOAD,2024-08-02 06:56:18,15.08834116,0.0001453,53.2171,167.4713,93.0868,267.029,-8.509e-06,-4.23e-06,0.0,0 STARLINK-4501,1 53553U 22101AC  24215.28910541 -.00000423  00000-0 -85090-5 0  9999,2 53553  53.2171 167.4713 0001453  93.0868 267.0290 15.08834116108741,6917.898,95.438,540.769,538.758,0.0
53553.0,STARLINK-4501,PAYLOAD,2024-08-02 21:14:46,15.0883474,0.0001358,53.2165,164.7948,96.1672,263.9475,5.3343e-05,5.61e-06,0.0,0 STARLINK-4501,1 53553U 22101AC  24215.88526400  .00000561  00000-0  53343-4 0  9998,2 53553  53.2165 164.7948 0001358  96.1672 263.9475 15.08834740108838,6917.896,95.438,540.701,538.822,0.0
53553.0,STARLINK-4501,PAYLOAD,2024-08-03 13:08:37,15.08849781,0.0001374,53.217,161.8222,91.6388,268.4762,0.00011812,1.593e-05,0.0,0 STARLINK-4501,1 53553U 22101AC  24216.54765283  .00001593  00000-0  11812-3 0  9996,2 53553  53.2170 161.8222 0001374  91.6388 268.4762 15.08849781108277,6917.85,95.437,540.666,538.765,0.0
53553.0,STARLINK-4501,PAYLOAD,2024-08-04 03:27:06,15.08828503,0.0001466,53.217,159.1503,106.0245,254.0909,8.0166e-05,9.88e-06,0.0,0 STARLINK-4501,1 53553U 22101AC  24217.14382949  .00000988  00000-0  80166-4 0  9993,2 53553  53.2170 159.1503 0001466 106.0245 254.0909 15.08828503108367,6917.916,95.438,540.795,538.766,0.0
53553.0,STARLINK-4501,PAYLOAD,2024-08-04 12:59:24,15.0885296,0.00012,53.2158,157.3624,88.3402,271.7728,0.00018767,2.701e-05,0.0,0 STARLINK-4501,1 53553U 22101AC  24217.54125031  .00002701  00000-0  18767-3 0  9996,2 53553  53.2158 157.3624 0001200  88.3402 271.7728 15.08852960108426,6917.841,95.437,540.536,538.876,0.0
53553.0,STARLINK-4501,PAYLOAD,2024-08-05 03:17:53,15.08844772,0.0001543,53.2174,154.6867,97.0894,263.0273,9.5596e-05,1.234e-05,0.0,0 STARLINK-4501,1 53553U 22101AC  24218.13742093  .00001234  00000-0  95596-4 0  9991,2 53553  53.2174 154.6867 0001543  97.0894 263.0273 15.08844772108516,6917.866,95.437,540.798,538.663,0.0
53553.0,STARLINK-4501,PAYLOAD,2024-08-05 12:50:11,15.08858088,0.000172,53.217,152.9016,76.7134,283.405,0.00010517,1.387e-05,0.0,0 STARLINK-4501,1 53553U 22101AC  24218.53485024  .00001387  00000-0  10517-3 0  9991,2 53553  53.2170 152.9016 0001720  76.7134 283.4050 15.08858088108577,6917.825,95.436,540.88,538.5,0.0
53553.0,STARLINK-4501,PAYLOAD,2024-08-06 04:44:05,15.08820118,0.0001555,53.2165,149.9267,77.1955,282.921,-0.00013635,-2.456e-05,0.0,0 STARLINK-4501,1 53553U 22101AC  24219.19728884 -.00002456  00000-0 -13635-3 0  9992,2 53553  53.2165 149.9267 0001555  77.1955 282.9210 15.08820118108673,6917.941,95.439,540.882,538.73,0.0
53553.0,STARLINK-4501,PAYLOAD,2024-08-06 12:41:00,15.08832485,0.0001524,53.2169,148.4424,85.8965,274.2201,-2.6996e-05,-7.18e-06,0.0,0 STARLINK-4501,1 53553U 22101AC  24219.52848060 -.00000718  00000-0 -26996-4 0  9992,2 53553  53.2169 148.4424 0001524  85.8965 274.2201 15.08832485108729,6917.903,95.438,540.823,538.714,0.0
53553.0,STARLINK-4501,PAYLOAD,2024-08-07 01:24:04,15.08850507,0.0001637,53.2164,146.0594,93.2732,266.8447,0.00012727,1.739e-05,0.0,0 STARLINK-4501,1 53553U 22101AC  24220.05838685  .00001739  00000-0  12727-3 0  9992,2 53553  53.2164 146.0594 0001637  93.2732 266.8447 15.08850507108809,6917.848,95.437,540.846,538.581,0.0
53553.0,STARLINK-4501,PAYLOAD,2024-08-08 01:14:51,15.08847269,0.000146,53.217,141.5922,110.4522,249.6627,0.00039836,6.059e-05,0.0,0 STARLINK-4501,1 53553U 22101AC  24221.05198936  .00006059  00000-0  39836-3 0  9991,2 53553  53.2170 141.5922 0001460 110.4522 249.6627 15.08847269109614,6917.858,95.437,540.733,538.713,0.0
53553.0,STARLINK-4501,PAYLOAD,2024-08-09 04:16:25,15.08845421,0.0001338,53.2167,136.5428,92.9849,267.1296,-5.8494e-05,-1.219e-05,0.0,0 STARLINK-4501,1 53553U 22101AC  24222.17806778 -.00001219  00000-0 -58494-4 0  9992,2 53553  53.2167 136.5428 0001338  92.9849 267.1296 15.08845421109126,6917.864,95.437,540.654,538.803,0.0
53553.0,STARLINK-4501,PAYLOAD,2024-08-09 21:45:39,15.08835665,0.0001041,53.2179,133.2715,82.9179,277.1931,4.8846e-05,4.9e-06,0.0,0 STARLINK-4501,1 53553U 22101AC  24222.90671161  .00000490  00000-0  48846-4 0  9997,2 53553  53.2179 133.2715 0001041  82.9179 277.1931 15.08835665109898,6917.894,95.438,540.479,539.038,0.0
53553.0,STARLINK-4501,PAYLOAD,2024-08-09 23:21:03,15.08835758,0.0001048,53.2177,132.9743,82.5685,277.5426,4.4155e-05,4.15e-06,0.0,0 STARLINK-4501,1 53553U 22101AC  24222.97295159  .00000415  00000-0  44155-4 0  9999,2 53553  53.2177 132.9743 0001048  82.5685 277.5426 15.08835758109243,6917.893,95.438,540.483,539.033,0.0
53553.0,STARLINK-4501,PAYLOAD,2024-08-10 18:25:40,15.08857736,0.0001024,53.2178,129.4054,74.5133,285.5972,-0.00012659,-2.303e-05,0.0,0 STARLINK-4501,1 53553U 22101AC  24223.76782591 -.00002303  00000-0 -12659-3 0  9991,2 53553  53.2178 129.4054 0001024  74.5133 285.5972 15.08857736109361,6917.826,95.436,540.4,538.983,0.0
53553.0,STARLINK-4501,PAYLOAD,2024-08-10 21:36:26,15.08831556,0.0001167,53.2174,128.8104,112.6371,247.4745,0.00016503,2.339e-05,0.0,0 STARLINK-4501,1 53553U 22101AC  24223.90030912  .00002339  00000-0  16503-3 0  9999,2 53553  53.2174 128.8104 0001167 112.6371 247.4745 15.08831556110046,6917.906,95.438,540.579,538.964,0.0
53553.0,STARLINK-4501,PAYLOAD,2024-08-11 00:47:13,15.08840017,0.0001062,53.2162,128.2253,98.9312,261.18,3.5265e-05,2.74e-06,0.0,0 STARLINK-4501,1 53553U 22101AC  24224.03278938  .00000274  00000-0  35265-4 0  9999,2 53553  53.2162 128.2253 0001062  98.9312 261.1800 15.08840017109402,6917.88,95.438,540.48,539.011,0.0
53553.0,STARLINK-4501,PAYLOAD,2024-08-11 10:19:28,15.0887429,6.47e-05,53.2173,126.4332,27.9596,332.1431,0.0003422,5.168e-05,0.0,0 STARLINK-4501,1 53553U 22101AC  24224.43019479  .00005168  00000-0  34220-3 0  9992,2 53553  53.2173 126.4332 0000647  27.9596 332.1431 15.08874290109461,6917.776,95.435,540.088,539.193,0.0
53553.0,STARLINK-4501,PAYLOAD,2024-08-11 21:27:14,15.08822847,0.000142,53.2174,124.3574,96.9395,263.1759,3.6116e-06,-2.3e-06,0.0,0 STARLINK-4501,1 53553U 22101AC  24224.89392163 -.00000230  00000-0  36116-5 0  9990,2 53553  53.2174 124.3574 0001420  96.9395 263.1759 15.08822847109535,6917.933,95.439,540.78,538.815,0.0
53553.0,STARLINK-4501,PAYLOAD,2024-08-12 03:48:45,15.08845818,0.0001072,53.2159,123.1639,96.4889,263.6226,0.0001691,2.405e-05,0.0,0 STARLINK-4501,1 53553U 22101AC  24225.15886274  .00002405  00000-0  16910-3 0  9994,2 53553  53.2159 123.1639 0001072  96.4889 263.6226 15.08845818109574,6917.863,95.437,540.469,538.986,0.0
53553.0,STARLINK-4501,PAYLOAD,2024-08-12 10:10:17,15.08856955,0.0001192,53.2171,121.9758,97.3907,262.7221,0.00025788,3.821e-05,0.0,0 STARLINK-4501,1 53553U 22101AC  24225.42381539  .00003821  00000-0  25788-3 0  9994,2 53553  53.2171 121.9758 0001192  97.3907 262.7221 15.08856955109614,6917.829,95.436,540.518,538.869,0.0
